{
  "type": "FeatureCollection",
  "features": [
    {
      "type": "Feature",
      "properties": {
        "norad_id": 31303,
        "name": "FENGYUN 1C DEB",
        "group": "fengyun-1c-debris",
        "lat": 17.481735303915002,
        "lon": 0.29650081294947167,
        "alt_km": 862.0482656541972,
        "timestamp": "2025-12-12T20:43:07.316933+00:00",
        "meta_object_name": "FENGYUN 1C DEB",
        "meta_object_id": "1999-025BPM",
        "meta_epoch": "2025-12-12T00:12:46.138176",
        "meta_mean_motion": 14.1102451,
        "meta_eccentricity": 0.0011564,
        "meta_inclination": 98.7048,
        "meta_ra_of_asc_node": 2.2342,
        "meta_arg_of_pericenter": 154.1649,
        "meta_mean_anomaly": 206.0102,
        "meta_ephemeris_type": 0,
        "meta_classification_type": "U",
        "meta_norad_cat_id": 31303,
        "meta_element_set_no": 999,
        "meta_rev_at_epoch": 96308,
        "meta_bstar": 0.00014182,
        "meta_mean_motion_dot": 2.13e-06,
        "meta_mean_motion_ddot": 0,
        "tle_line1": "1 31303U 99025BPM 25346.00886734  .00000213  00000+0  14182-3 0  9995",
        "tle_line2": "2 31303  98.7048   2.2342 0011564 154.1649 206.0102 14.11024510963084"
      },
      "geometry": {
        "type": "Point",
        "coordinates": [
          0.29650081294947167,
          17.481735303915002
        ]
      }
    },
    {
      "type": "Feature",
      "properties": {
        "norad_id": 31311,
        "name": "FENGYUN 1C DEB",
        "group": "fengyun-1c-debris",
        "lat": 79.93781180613821,
        "lon": 6.775653493683842,
        "alt_km": 771.746195190638,
        "timestamp": "2025-12-12T20:43:07.316944+00:00",
        "meta_object_name": "FENGYUN 1C DEB",
        "meta_object_id": "1999-025BPP",
        "meta_epoch": "2025-12-12T05:19:21.443808",
        "meta_mean_motion": 14.2973959,
        "meta_eccentricity": 0.00187013,
        "meta_inclination": 98.8526,
        "meta_ra_of_asc_node": 67.56,
        "meta_arg_of_pericenter": 88.3084,
        "meta_mean_anomaly": 296.9151,
        "meta_ephemeris_type": 0,
        "meta_classification_type": "U",
        "meta_norad_cat_id": 31311,
        "meta_element_set_no": 999,
        "meta_rev_at_epoch": 96214,
        "meta_bstar": 0.0027958928,
        "meta_mean_motion_dot": 7.15e-05,
        "meta_mean_motion_ddot": 0,
        "tle_line1": "1 31311U 99025BPP 25346.22177597  .00007150  00000+0  27959-2 0  9990",
        "tle_line2": "2 31311  98.8526  67.5600 0018701  88.3084 296.9151 14.29739590962145"
      },
      "geometry": {
        "type": "Point",
        "coordinates": [
          6.775653493683842,
          79.93781180613821
        ]
      }
    },
    {
      "type": "Feature",
      "properties": {
        "norad_id": 31312,
        "name": "FENGYUN 1C DEB",
        "group": "fengyun-1c-debris",
        "lat": -55.27584977053365,
        "lon": 139.5233540460972,
        "alt_km": 855.4049905128022,
        "timestamp": "2025-12-12T20:43:07.316954+00:00",
        "meta_object_name": "FENGYUN 1C DEB",
        "meta_object_id": "1999-025BPQ",
        "meta_epoch": "2025-12-12T05:57:16.775712",
        "meta_mean_motion": 14.00920011,
        "meta_eccentricity": 0.00580376,
        "meta_inclination": 98.8595,
        "meta_ra_of_asc_node": 331.9323,
        "meta_arg_of_pericenter": 237.6402,
        "meta_mean_anomaly": 137.7966,
        "meta_ephemeris_type": 0,
        "meta_classification_type": "U",
        "meta_norad_cat_id": 31312,
        "meta_element_set_no": 999,
        "meta_rev_at_epoch": 95139,
        "meta_bstar": 0.00075359046,
        "meta_mean_motion_dot": 1.1e-05,
        "meta_mean_motion_ddot": 0,
        "tle_line1": "1 31312U 99025BPQ 25346.24811083  .00001100  00000+0  75359-3 0  9995",
        "tle_line2": "2 31312  98.8595 331.9323 0058037 237.6402 137.7966 14.00920011951391"
      },
      "geometry": {
        "type": "Point",
        "coordinates": [
          139.5233540460972,
          -55.27584977053365
        ]
      }
    },
    {
      "type": "Feature",
      "properties": {
        "norad_id": 31313,
        "name": "FENGYUN 1C DEB",
        "group": "fengyun-1c-debris",
        "lat": -66.98357433780316,
        "lon": -87.30626842276621,
        "alt_km": 835.9770981826596,
        "timestamp": "2025-12-12T20:43:07.316964+00:00",
        "meta_object_name": "FENGYUN 1C DEB",
        "meta_object_id": "1999-025BPR",
        "meta_epoch": "2025-12-12T04:09:34.916256",
        "meta_mean_motion": 14.22273078,
        "meta_eccentricity": 0.00446254,
        "meta_inclination": 99.0149,
        "meta_ra_of_asc_node": 250.0446,
        "meta_arg_of_pericenter": 182.8312,
        "meta_mean_anomaly": 177.2618,
        "meta_ephemeris_type": 0,
        "meta_classification_type": "U",
        "meta_norad_cat_id": 31313,
        "meta_element_set_no": 999,
        "meta_rev_at_epoch": 97054,
        "meta_bstar": 0.00045119323,
        "meta_mean_motion_dot": 9.66e-06,
        "meta_mean_motion_ddot": 0,
        "tle_line1": "1 31313U 99025BPR 25346.17332079  .00000966  00000+0  45119-3 0  9991",
        "tle_line2": "2 31313  99.0149 250.0446 0044625 182.8312 177.2618 14.22273078970545"
      },
      "geometry": {
        "type": "Point",
        "coordinates": [
          -87.30626842276621,
          -66.98357433780316
        ]
      }
    },
    {
      "type": "Feature",
      "properties": {
        "norad_id": 31314,
        "name": "FENGYUN 1C DEB",
        "group": "fengyun-1c-debris",
        "lat": -27.67813069609706,
        "lon": -14.458212138783873,
        "alt_km": 830.384267809588,
        "timestamp": "2025-12-12T20:43:07.316974+00:00",
        "meta_object_name": "FENGYUN 1C DEB",
        "meta_object_id": "1999-025BPS",
        "meta_epoch": "2025-12-06T05:53:33.958752",
        "meta_mean_motion": 14.04913607,
        "meta_eccentricity": 0.00791603,
        "meta_inclination": 98.8218,
        "meta_ra_of_asc_node": 334.4356,
        "meta_arg_of_pericenter": 15.6231,
        "meta_mean_anomaly": 344.7353,
        "meta_ephemeris_type": 0,
        "meta_classification_type": "U",
        "meta_norad_cat_id": 31314,
        "meta_element_set_no": 999,
        "meta_rev_at_epoch": 60723,
        "meta_bstar": 0.00045752491,
        "meta_mean_motion_dot": 7.13e-06,
        "meta_mean_motion_ddot": 0,
        "tle_line1": "1 31314U 99025BPS 25340.24553193  .00000713  00000+0  45752-3 0  9999",
        "tle_line2": "2 31314  98.8218 334.4356 0079160  15.6231 344.7353 14.04913607607231"
      },
      "geometry": {
        "type": "Point",
        "coordinates": [
          -14.458212138783873,
          -27.67813069609706
        ]
      }
    },
    {
      "type": "Feature",
      "properties": {
        "norad_id": 31319,
        "name": "FENGYUN 1C DEB",
        "group": "fengyun-1c-debris",
        "lat": -4.901967594287148,
        "lon": 64.90236202401796,
        "alt_km": 998.0983583154602,
        "timestamp": "2025-12-12T20:43:07.316985+00:00",
        "meta_object_name": "FENGYUN 1C DEB",
        "meta_object_id": "1999-025BPX",
        "meta_epoch": "2025-12-11T16:03:37.399968",
        "meta_mean_motion": 13.75827635,
        "meta_eccentricity": 0.01706305,
        "meta_inclination": 98.8308,
        "meta_ra_of_asc_node": 244.559,
        "meta_arg_of_pericenter": 89.7809,
        "meta_mean_anomaly": 301.9758,
        "meta_ephemeris_type": 0,
        "meta_classification_type": "U",
        "meta_norad_cat_id": 31319,
        "meta_element_set_no": 999,
        "meta_rev_at_epoch": 93673,
        "meta_bstar": 0.00023941976,
        "meta_mean_motion_dot": 2.19e-06,
        "meta_mean_motion_ddot": 0,
        "tle_line1": "1 31319U 99025BPX 25345.66918287  .00000219  00000+0  23942-3 0  9992",
        "tle_line2": "2 31319  98.8308 244.5590 0170630  89.7809 301.9758 13.75827635936730"
      },
      "geometry": {
        "type": "Point",
        "coordinates": [
          64.90236202401796,
          -4.901967594287148
        ]
      }
    },
    {
      "type": "Feature",
      "properties": {
        "norad_id": 31321,
        "name": "FENGYUN 1C DEB",
        "group": "fengyun-1c-debris",
        "lat": 47.74300452852789,
        "lon": -104.52874449107536,
        "alt_km": 827.3093210063544,
        "timestamp": "2025-12-12T20:43:07.316995+00:00",
        "meta_object_name": "FENGYUN 1C DEB",
        "meta_object_id": "1999-025BPZ",
        "meta_epoch": "2025-11-28T23:11:37.489632",
        "meta_mean_motion": 14.13809948,
        "meta_eccentricity": 0.00293651,
        "meta_inclination": 98.7348,
        "meta_ra_of_asc_node": 52.1537,
        "meta_arg_of_pericenter": 217.1862,
        "meta_mean_anomaly": 142.7277,
        "meta_ephemeris_type": 0,
        "meta_classification_type": "U",
        "meta_norad_cat_id": 31321,
        "meta_element_set_no": 999,
        "meta_rev_at_epoch": 57189,
        "meta_bstar": 0.00017233355,
        "meta_mean_motion_dot": 2.84e-06,
        "meta_mean_motion_ddot": 0,
        "tle_line1": "1 31321U 99025BPZ 25332.96640613  .00000284  00000+0  17233-3 0  9997",
        "tle_line2": "2 31321  98.7348  52.1537 0029365 217.1862 142.7277 14.13809948571893"
      },
      "geometry": {
        "type": "Point",
        "coordinates": [
          -104.52874449107536,
          47.74300452852789
        ]
      }
    }
  ]
}